[{"id":1,"name":"Mojoroto","address":"9th Floor","pincode":2003},
{"id":2,"name":"Jarānwāla","address":"Room 1829","pincode":1991},
{"id":3,"name":"Yangchun","address":"Apt 533","pincode":1992},
{"id":4,"name":"Jāndiāla Sher Khān","address":"Room 983","pincode":2011},
{"id":5,"name":"Newton","address":"Suite 62","pincode":1997},
{"id":6,"name":"Las Cruces","address":"PO Box 52537","pincode":2007},
{"id":7,"name":"Huangqiao","address":"Apt 1840","pincode":2009},
{"id":8,"name":"Krasnyy Yar","address":"Apt 1651","pincode":1985},
{"id":9,"name":"Thị Trấn Pác Miầu","address":"14th Floor","pincode":1998},
{"id":10,"name":"Bełsznica","address":"Apt 1830","pincode":1987},
{"id":11,"name":"Yanglinwei","address":"Suite 35","pincode":2011},
{"id":12,"name":"Vónitsa","address":"18th Floor","pincode":2013},
{"id":13,"name":"Bellavista","address":"Room 1187","pincode":1994},
{"id":14,"name":"Smolec","address":"10th Floor","pincode":1987},
{"id":15,"name":"Ferreira do Alentejo","address":"18th Floor","pincode":1998},
{"id":16,"name":"Dem’yanovo","address":"Apt 1089","pincode":1992},
{"id":17,"name":"Quisao","address":"Room 1095","pincode":2001},
{"id":18,"name":"Shishang","address":"PO Box 13048","pincode":1998},
{"id":19,"name":"Gabaldon","address":"Room 868","pincode":2004},
{"id":20,"name":"Trzin","address":"18th Floor","pincode":1984},
{"id":21,"name":"São Sebastião do Caí","address":"PO Box 29076","pincode":2010},
{"id":22,"name":"Banjing","address":"Suite 18","pincode":2003},
{"id":23,"name":"Boulsa","address":"Room 731","pincode":1986},
{"id":24,"name":"Aranhas","address":"17th Floor","pincode":2002},
{"id":25,"name":"Saint-Leu-la-Forêt","address":"Apt 1127","pincode":2001},
{"id":26,"name":"Huoli","address":"Suite 95","pincode":2006},
{"id":27,"name":"Nagrumbuan","address":"Apt 1272","pincode":1997},
{"id":28,"name":"Kanekomachi","address":"PO Box 55555","pincode":1990},
{"id":29,"name":"Lushnjë","address":"PO Box 14134","pincode":1984},
{"id":30,"name":"Липково","address":"Room 853","pincode":2006},
{"id":31,"name":"Paphos","address":"Apt 1757","pincode":1997},
{"id":32,"name":"Santa Rosa de Viterbo","address":"Suite 47","pincode":2011},
{"id":33,"name":"Girón","address":"PO Box 68854","pincode":2003},
{"id":34,"name":"Bang Klam","address":"Room 963","pincode":2007},
{"id":35,"name":"Sonder","address":"Apt 1528","pincode":1973},
{"id":36,"name":"Gaofeng","address":"5th Floor","pincode":2011},
{"id":37,"name":"Bulacan","address":"Suite 7","pincode":2005},
{"id":38,"name":"Petit Raffray","address":"PO Box 70160","pincode":2005},
{"id":39,"name":"Yanqi","address":"Room 811","pincode":2006},
{"id":40,"name":"Katima Mulilo","address":"5th Floor","pincode":2009},
{"id":41,"name":"Mae Sot","address":"Room 1814","pincode":2009},
{"id":42,"name":"Hwaseong-si","address":"PO Box 9023","pincode":1999},
{"id":43,"name":"Point Hill","address":"19th Floor","pincode":1992},
{"id":44,"name":"Ishikawa","address":"Suite 15","pincode":1976},
{"id":45,"name":"Roissy Charles-de-Gaulle","address":"Suite 16","pincode":1996},
{"id":46,"name":"Dzhayrakh","address":"Room 1140","pincode":2009},
{"id":47,"name":"Raas","address":"Suite 24","pincode":2008},
{"id":48,"name":"Pervomayskoye","address":"Suite 81","pincode":2005},
{"id":49,"name":"Tomakomai","address":"Suite 66","pincode":1989},
{"id":50,"name":"Qarqīn","address":"Apt 261","pincode":2006},
{"id":51,"name":"Luga","address":"Suite 29","pincode":2008},
{"id":52,"name":"Uchaly","address":"Room 812","pincode":2007},
{"id":53,"name":"Soanindrariny","address":"PO Box 51151","pincode":2008},
{"id":54,"name":"Götene","address":"Room 1979","pincode":2009},
{"id":55,"name":"Ebetsu","address":"PO Box 39073","pincode":2006},
{"id":56,"name":"Oefau","address":"Apt 1170","pincode":1997},
{"id":57,"name":"Mörön","address":"Suite 32","pincode":2012},
{"id":58,"name":"Geoktschai","address":"14th Floor","pincode":1987},
{"id":59,"name":"Oslo","address":"Apt 652","pincode":2001},
{"id":60,"name":"Eindhoven","address":"PO Box 70767","pincode":1993},
{"id":61,"name":"Tanglag","address":"7th Floor","pincode":1990},
{"id":62,"name":"Malinaw","address":"Room 793","pincode":1995},
{"id":63,"name":"Rauna","address":"Room 1888","pincode":1999},
{"id":64,"name":"Valtimo","address":"PO Box 65330","pincode":2003},
{"id":65,"name":"Khon San","address":"9th Floor","pincode":1991},
{"id":66,"name":"Huichang","address":"10th Floor","pincode":1989},
{"id":67,"name":"Pasirangin Tiga","address":"Suite 10","pincode":2008},
{"id":68,"name":"Sokol","address":"Room 1071","pincode":2008},
{"id":69,"name":"Miyazu","address":"16th Floor","pincode":1997},
{"id":70,"name":"Skála Oropoú","address":"Suite 64","pincode":2002},
{"id":71,"name":"Juru","address":"Apt 954","pincode":2012},
{"id":72,"name":"Gampaha","address":"Apt 828","pincode":2002},
{"id":73,"name":"Casselman","address":"11th Floor","pincode":2009},
{"id":74,"name":"Santa Rosa de Cabal","address":"4th Floor","pincode":2002},
{"id":75,"name":"Agua Buena","address":"Apt 1572","pincode":1998},
{"id":76,"name":"Campo Largo","address":"7th Floor","pincode":2003},
{"id":77,"name":"Pirapozinho","address":"Apt 1922","pincode":1997},
{"id":78,"name":"Pridonskoy","address":"Room 829","pincode":2013},
{"id":79,"name":"Businga","address":"Suite 96","pincode":2009},
{"id":80,"name":"Koímisi","address":"PO Box 7687","pincode":2006},
{"id":81,"name":"Zubin Potok","address":"4th Floor","pincode":2006},
{"id":82,"name":"Łubowo","address":"Room 1229","pincode":1985},
{"id":83,"name":"Sergach","address":"14th Floor","pincode":2003},
{"id":84,"name":"Paoay","address":"Apt 997","pincode":2005},
{"id":85,"name":"Jacareí","address":"Room 355","pincode":1996},
{"id":86,"name":"Tozkhurmato","address":"Apt 1532","pincode":1990},
{"id":87,"name":"Vila Pouca da Beira","address":"7th Floor","pincode":2011},
{"id":88,"name":"Abut","address":"Apt 1325","pincode":2003},
{"id":89,"name":"Paizhou","address":"PO Box 39904","pincode":1985},
{"id":90,"name":"Youzai","address":"17th Floor","pincode":2002},
{"id":91,"name":"Bangui","address":"Apt 1339","pincode":1997},
{"id":92,"name":"Upata","address":"Suite 91","pincode":2004},
{"id":93,"name":"Attard","address":"19th Floor","pincode":2008},
{"id":94,"name":"Harstad","address":"12th Floor","pincode":1981},
{"id":95,"name":"Sri Jayewardenepura Kotte","address":"9th Floor","pincode":1996},
{"id":96,"name":"Gouyan","address":"Suite 35","pincode":1993},
{"id":97,"name":"Cabagan","address":"Suite 69","pincode":2012},
{"id":98,"name":"Jingdang","address":"Suite 38","pincode":1988},
{"id":99,"name":"Daet","address":"Suite 1","pincode":2009},
{"id":100,"name":"Dongguan","address":"PO Box 84430","pincode":2002},
{"id":101,"name":"Dadukou","address":"Suite 68","pincode":2003},
{"id":102,"name":"Birmingham","address":"PO Box 57975","pincode":1999},
{"id":103,"name":"Liushutun","address":"Suite 13","pincode":1993},
{"id":104,"name":"Mzuzu","address":"Room 964","pincode":1994},
{"id":105,"name":"Fier","address":"19th Floor","pincode":2013},
{"id":106,"name":"‘Aşīrah al Qiblīyah","address":"Apt 282","pincode":1985},
{"id":107,"name":"Ratchasan","address":"Suite 49","pincode":1992},
{"id":108,"name":"Polkowice","address":"Room 17","pincode":2005},
{"id":109,"name":"Sinjil","address":"18th Floor","pincode":2004},
{"id":110,"name":"Itaberaba","address":"Apt 1487","pincode":1986},
{"id":111,"name":"Xiwu","address":"Room 1510","pincode":1987},
{"id":112,"name":"Loudun","address":"PO Box 467","pincode":2011},
{"id":113,"name":"Siva","address":"Suite 50","pincode":2002},
{"id":114,"name":"Pangai","address":"Apt 1388","pincode":1987},
{"id":115,"name":"Taganrog","address":"Apt 55","pincode":2006},
{"id":116,"name":"Bingawan","address":"Apt 501","pincode":1994},
{"id":117,"name":"Yanghong","address":"Suite 46","pincode":1995},
{"id":118,"name":"Akashi","address":"PO Box 16679","pincode":1997},
{"id":119,"name":"Chengnan","address":"Room 133","pincode":2003},
{"id":120,"name":"Al Ḩashwah","address":"19th Floor","pincode":2008},
{"id":121,"name":"Meixi","address":"PO Box 97777","pincode":2000},
{"id":122,"name":"Wichita","address":"15th Floor","pincode":2011},
{"id":123,"name":"Takeshiken","address":"Room 523","pincode":2004},
{"id":124,"name":"Phra Phutthabat","address":"Suite 58","pincode":2005},
{"id":125,"name":"Laguna de Perlas","address":"Suite 21","pincode":2009},
{"id":126,"name":"Chinchero","address":"17th Floor","pincode":2011},
{"id":127,"name":"Yuanmou","address":"Apt 1745","pincode":2005},
{"id":128,"name":"Dno","address":"Suite 5","pincode":2004},
{"id":129,"name":"Pasirreungit","address":"PO Box 91619","pincode":1993},
{"id":130,"name":"Velké Karlovice","address":"Room 1900","pincode":2001},
{"id":131,"name":"Langjun","address":"Room 1114","pincode":2008},
{"id":132,"name":"Naili","address":"Suite 75","pincode":2001},
{"id":133,"name":"Georgīevka","address":"PO Box 12573","pincode":1996},
{"id":134,"name":"Usquil","address":"Apt 427","pincode":1989},
{"id":135,"name":"Cabimas","address":"Apt 461","pincode":2010},
{"id":136,"name":"Mao","address":"PO Box 25229","pincode":2006},
{"id":137,"name":"Loma Bonita","address":"8th Floor","pincode":2003},
{"id":138,"name":"Dno","address":"1st Floor","pincode":2010},
{"id":139,"name":"Mukayrās","address":"Room 166","pincode":2008},
{"id":140,"name":"Velykyy Klyuchiv","address":"20th Floor","pincode":2001},
{"id":141,"name":"Härnösand","address":"PO Box 1237","pincode":2010},
{"id":142,"name":"Gaojia","address":"12th Floor","pincode":2001},
{"id":143,"name":"Banjar Delodrurung","address":"2nd Floor","pincode":2002},
{"id":144,"name":"Santa Ana","address":"Room 470","pincode":2003},
{"id":145,"name":"Suzhou","address":"Suite 62","pincode":2008},
{"id":146,"name":"Zwedru","address":"PO Box 87891","pincode":1996},
{"id":147,"name":"Wonosari","address":"20th Floor","pincode":1992},
{"id":148,"name":"Glasgow","address":"20th Floor","pincode":2011},
{"id":149,"name":"Voyutychi","address":"16th Floor","pincode":2003},
{"id":150,"name":"Shicheng","address":"Apt 797","pincode":1995},
{"id":151,"name":"Bajram Curri","address":"4th Floor","pincode":2000},
{"id":152,"name":"Aguas Corrientes","address":"Suite 15","pincode":1996},
{"id":153,"name":"Kamigyō-ku","address":"PO Box 38942","pincode":1999},
{"id":154,"name":"Cihaladan","address":"Room 928","pincode":1990},
{"id":155,"name":"Kostyantynivka","address":"Apt 1943","pincode":2008},
{"id":156,"name":"Melrose","address":"10th Floor","pincode":1999},
{"id":157,"name":"Curepipe","address":"Room 292","pincode":1995},
{"id":158,"name":"Panikian","address":"Apt 453","pincode":2007},
{"id":159,"name":"Nakambala","address":"Room 1086","pincode":1989},
{"id":160,"name":"Naguanagua","address":"Apt 1770","pincode":1997},
{"id":161,"name":"Yeyik","address":"PO Box 92157","pincode":2012},
{"id":162,"name":"Cruces","address":"Room 119","pincode":2005},
{"id":163,"name":"Levuka","address":"6th Floor","pincode":2004},
{"id":164,"name":"Kemiri Daya","address":"Suite 20","pincode":1996},
{"id":165,"name":"Laval","address":"Room 1271","pincode":2007},
{"id":166,"name":"Obrera","address":"PO Box 61725","pincode":2004},
{"id":167,"name":"Nowshahr","address":"12th Floor","pincode":2003},
{"id":168,"name":"Dadiya","address":"Apt 860","pincode":1971},
{"id":169,"name":"Myingyan","address":"Suite 24","pincode":2006},
{"id":170,"name":"Krylovskaya","address":"PO Box 26997","pincode":2003},
{"id":171,"name":"Rubirizi","address":"Apt 1202","pincode":2003},
{"id":172,"name":"Andkhōy","address":"Room 861","pincode":1991},
{"id":173,"name":"Ořechov","address":"Apt 1732","pincode":2000},
{"id":174,"name":"Silongin","address":"Apt 1424","pincode":2001},
{"id":175,"name":"Yangji","address":"Apt 1712","pincode":2001},
{"id":176,"name":"Garibaldi","address":"PO Box 29605","pincode":1998},
{"id":177,"name":"Montigny-lès-Metz","address":"11th Floor","pincode":2002},
{"id":178,"name":"Cho-airong","address":"Apt 319","pincode":2005},
{"id":179,"name":"Karangtanjung","address":"Room 1065","pincode":2009},
{"id":180,"name":"Arrah","address":"Suite 26","pincode":2004},
{"id":181,"name":"Gio Linh","address":"PO Box 22785","pincode":2003},
{"id":182,"name":"Tall Abyaḑ","address":"Room 520","pincode":2011},
{"id":183,"name":"Casa Branca","address":"11th Floor","pincode":2007},
{"id":184,"name":"Tenggun Dajah","address":"5th Floor","pincode":2000},
{"id":185,"name":"Denton","address":"Suite 87","pincode":2001},
{"id":186,"name":"Roma","address":"Room 679","pincode":2010},
{"id":187,"name":"Prantaan","address":"Room 1558","pincode":1973},
{"id":188,"name":"Waoundé","address":"Room 806","pincode":2004},
{"id":189,"name":"Sumbersih","address":"PO Box 80432","pincode":1998},
{"id":190,"name":"Fatualam","address":"PO Box 38279","pincode":2000},
{"id":191,"name":"Senggapi","address":"PO Box 33465","pincode":1991},
{"id":192,"name":"Garupá","address":"15th Floor","pincode":2012},
{"id":193,"name":"Soisy-sous-Montmorency","address":"Apt 363","pincode":1985},
{"id":194,"name":"Midlands","address":"PO Box 95721","pincode":1986},
{"id":195,"name":"Nasielsk","address":"PO Box 3954","pincode":1985},
{"id":196,"name":"Yinchuan","address":"Suite 8","pincode":2009},
{"id":197,"name":"Soly","address":"Suite 54","pincode":2003},
{"id":198,"name":"Baiqiao","address":"6th Floor","pincode":2009},
{"id":199,"name":"Kraków","address":"PO Box 4427","pincode":1993},
{"id":200,"name":"Taihe","address":"PO Box 57593","pincode":1988},
{"id":201,"name":"Salto","address":"Apt 652","pincode":2010},
{"id":202,"name":"Gorzyce","address":"Apt 740","pincode":2010},
{"id":203,"name":"Vacov","address":"Room 518","pincode":2011},
{"id":204,"name":"Meizhuang","address":"Suite 36","pincode":2010},
{"id":205,"name":"Banyo","address":"Apt 16","pincode":2004},
{"id":206,"name":"Naga","address":"PO Box 20691","pincode":2006},
{"id":207,"name":"Santa Helena de Goiás","address":"15th Floor","pincode":2004},
{"id":208,"name":"Trakan Phut Phon","address":"Suite 90","pincode":2011},
{"id":209,"name":"Rio Grande","address":"Suite 29","pincode":2012},
{"id":210,"name":"Bryukhovetskaya","address":"Suite 100","pincode":2007},
{"id":211,"name":"Lesnoye","address":"PO Box 84739","pincode":1999},
{"id":212,"name":"Fresnes","address":"4th Floor","pincode":1995},
{"id":213,"name":"Cimonyong","address":"Suite 80","pincode":1992},
{"id":214,"name":"Las Minas","address":"Apt 1767","pincode":2012},
{"id":215,"name":"Tauca","address":"Room 1014","pincode":2001},
{"id":216,"name":"Taquile","address":"Suite 69","pincode":1996},
{"id":217,"name":"Hanam","address":"PO Box 62766","pincode":2000},
{"id":218,"name":"Xincheng","address":"12th Floor","pincode":2000},
{"id":219,"name":"Palalang","address":"Room 1097","pincode":2008},
{"id":220,"name":"Hrastnik","address":"PO Box 71314","pincode":2009},
{"id":221,"name":"Pinhal da Marquesa","address":"PO Box 96774","pincode":1994},
{"id":222,"name":"Bei’an","address":"PO Box 18369","pincode":2012},
{"id":223,"name":"Győr","address":"6th Floor","pincode":2010},
{"id":224,"name":"Göteborg","address":"8th Floor","pincode":2003},
{"id":225,"name":"Stockholm","address":"Suite 30","pincode":2007},
{"id":226,"name":"Pasararba","address":"Apt 31","pincode":1995},
{"id":227,"name":"Ganxi","address":"Suite 48","pincode":2011},
{"id":228,"name":"Khadzhalmakhi","address":"Suite 75","pincode":1995},
{"id":229,"name":"Göteborg","address":"Suite 74","pincode":2010},
{"id":230,"name":"Longshan","address":"Apt 1167","pincode":2005},
{"id":231,"name":"Chynów","address":"Room 1213","pincode":2012},
{"id":232,"name":"Frydek","address":"PO Box 5008","pincode":1987},
{"id":233,"name":"Hebeitun","address":"Apt 517","pincode":1993},
{"id":234,"name":"Lāliān","address":"Room 205","pincode":2011},
{"id":235,"name":"Moba","address":"Apt 422","pincode":1989},
{"id":236,"name":"Jinsha","address":"PO Box 46085","pincode":2003},
{"id":237,"name":"Tomelilla","address":"Room 738","pincode":2006},
{"id":238,"name":"Venda do Alcaide","address":"3rd Floor","pincode":2009},
{"id":239,"name":"Armação de Búzios","address":"8th Floor","pincode":2000},
{"id":240,"name":"Orhon","address":"Suite 61","pincode":2002},
{"id":241,"name":"Zhaoxian","address":"1st Floor","pincode":2006},
{"id":242,"name":"Vrané nad Vltavou","address":"PO Box 30611","pincode":1995},
{"id":243,"name":"Votkinsk","address":"Apt 587","pincode":2010},
{"id":244,"name":"Ban Talat Yai","address":"13th Floor","pincode":1997},
{"id":245,"name":"Kamenskiy","address":"PO Box 46101","pincode":1996},
{"id":246,"name":"Umanggudang","address":"Room 346","pincode":2008},
{"id":247,"name":"Bil‘īn","address":"Room 1341","pincode":2012},
{"id":248,"name":"Huai’an","address":"17th Floor","pincode":2009},
{"id":249,"name":"Timrå","address":"Room 1766","pincode":1990},
{"id":250,"name":"Maroanging","address":"18th Floor","pincode":1992},
{"id":251,"name":"Xiacang","address":"PO Box 88334","pincode":1988},
{"id":252,"name":"Xiaji","address":"Apt 1004","pincode":2008},
{"id":253,"name":"Mambi","address":"Room 1706","pincode":2011},
{"id":254,"name":"Nanxi","address":"7th Floor","pincode":2008},
{"id":255,"name":"Iza","address":"Suite 62","pincode":2010},
{"id":256,"name":"Cibodas","address":"6th Floor","pincode":2005},
{"id":257,"name":"Jatisari","address":"PO Box 82529","pincode":1997},
{"id":258,"name":"Pisang","address":"Apt 946","pincode":2004},
{"id":259,"name":"Oklahoma City","address":"Apt 432","pincode":2003},
{"id":260,"name":"Užice","address":"3rd Floor","pincode":1989},
{"id":261,"name":"Lobos","address":"Suite 36","pincode":1984},
{"id":262,"name":"Beiqi","address":"Apt 1931","pincode":2006},
{"id":263,"name":"Parada de Pinhão","address":"Suite 29","pincode":2000},
{"id":264,"name":"Falkenberg","address":"Suite 98","pincode":2002},
{"id":265,"name":"Stockholm","address":"17th Floor","pincode":2008},
{"id":266,"name":"Vanadzor","address":"Room 1564","pincode":2008},
{"id":267,"name":"Sindangsari","address":"Apt 605","pincode":2006},
{"id":268,"name":"Clermont-Ferrand","address":"PO Box 88364","pincode":2011},
{"id":269,"name":"Genova","address":"Suite 78","pincode":1996},
{"id":270,"name":"Santai","address":"Room 1453","pincode":2009},
{"id":271,"name":"Phu Kradueng","address":"Room 175","pincode":1990},
{"id":272,"name":"Bruxelles","address":"Suite 1","pincode":2009},
{"id":273,"name":"Jagodnjak","address":"Room 446","pincode":2003},
{"id":274,"name":"Yaozhou","address":"Suite 10","pincode":1998},
{"id":275,"name":"Maluso","address":"17th Floor","pincode":2000},
{"id":276,"name":"Vishnyeva","address":"PO Box 43512","pincode":2010},
{"id":277,"name":"Quy Đạt","address":"PO Box 89590","pincode":1988},
{"id":278,"name":"Santa Maria","address":"Suite 84","pincode":2007},
{"id":279,"name":"Iwanuma","address":"12th Floor","pincode":2009},
{"id":280,"name":"Echarate","address":"Apt 1268","pincode":1994},
{"id":281,"name":"Wangjiahe","address":"12th Floor","pincode":2009},
{"id":282,"name":"Baisha","address":"PO Box 49809","pincode":1995},
{"id":283,"name":"Yukuriawat","address":"Apt 1669","pincode":1994},
{"id":284,"name":"Kuala Lumpur","address":"4th Floor","pincode":1995},
{"id":285,"name":"Prao","address":"Apt 357","pincode":1992},
{"id":286,"name":"Noebana","address":"Suite 4","pincode":2000},
{"id":287,"name":"Huanipaca","address":"Room 1655","pincode":2004},
{"id":288,"name":"Jiujianfang","address":"2nd Floor","pincode":2002},
{"id":289,"name":"Suncun","address":"2nd Floor","pincode":2010},
{"id":290,"name":"Alicante/Alacant","address":"14th Floor","pincode":1989},
{"id":291,"name":"Nanbao","address":"18th Floor","pincode":2002},
{"id":292,"name":"Ulsan","address":"10th Floor","pincode":1993},
{"id":293,"name":"Ishigaki","address":"Room 146","pincode":1996},
{"id":294,"name":"Naushahro Fīroz","address":"Suite 88","pincode":1992},
{"id":295,"name":"Trzciana","address":"Suite 47","pincode":1993},
{"id":296,"name":"Jingning Chengguanzhen","address":"Room 1196","pincode":2000},
{"id":297,"name":"Palotina","address":"1st Floor","pincode":2002},
{"id":298,"name":"Alak","address":"Apt 1045","pincode":2003},
{"id":299,"name":"Banepa","address":"2nd Floor","pincode":2005},
{"id":300,"name":"Klapagada","address":"Apt 1952","pincode":2006},
{"id":301,"name":"Abbeville","address":"Suite 72","pincode":2000},
{"id":302,"name":"Pilot Butte","address":"Apt 1103","pincode":2013},
{"id":303,"name":"Neundeut","address":"Apt 1172","pincode":2012},
{"id":304,"name":"Staroyur’yevo","address":"PO Box 25445","pincode":2007},
{"id":305,"name":"Compiègne","address":"Room 1429","pincode":2000},
{"id":306,"name":"Lunyuk Ode","address":"15th Floor","pincode":1990},
{"id":307,"name":"Néa Tríglia","address":"Apt 1392","pincode":2009},
{"id":308,"name":"Dagang","address":"PO Box 51815","pincode":1993},
{"id":309,"name":"Halmstad","address":"Apt 566","pincode":1979},
{"id":310,"name":"El Marañón","address":"Apt 269","pincode":1994},
{"id":311,"name":"Kola","address":"Suite 46","pincode":1996},
{"id":312,"name":"Murmansk","address":"20th Floor","pincode":1997},
{"id":313,"name":"Don Mueang","address":"10th Floor","pincode":2012},
{"id":314,"name":"Liusi","address":"Apt 1435","pincode":2004},
{"id":315,"name":"Cimarelang","address":"Room 1464","pincode":2008},
{"id":316,"name":"Woloara","address":"Room 750","pincode":2003},
{"id":317,"name":"Chorkówka","address":"Apt 167","pincode":1984},
{"id":318,"name":"Guanqiao","address":"Suite 4","pincode":1992},
{"id":319,"name":"Magway","address":"Room 1107","pincode":1985},
{"id":320,"name":"Yangping","address":"Suite 26","pincode":1993},
{"id":321,"name":"Wurigelebur","address":"Room 1085","pincode":1987},
{"id":322,"name":"Kanganpur","address":"11th Floor","pincode":2000},
{"id":323,"name":"Sudo","address":"Suite 100","pincode":1995},
{"id":324,"name":"Owode","address":"Apt 558","pincode":2009},
{"id":325,"name":"Santa Clara","address":"Suite 53","pincode":1993},
{"id":326,"name":"Khelyulya","address":"Suite 30","pincode":1997},
{"id":327,"name":"Guaíra","address":"Apt 1469","pincode":2004},
{"id":328,"name":"Lawa-an","address":"10th Floor","pincode":2007},
{"id":329,"name":"Otutara","address":"Room 896","pincode":1994},
{"id":330,"name":"Delodpeken","address":"Apt 1573","pincode":2008},
{"id":331,"name":"Pámfylla","address":"Apt 467","pincode":1997},
{"id":332,"name":"Catujal","address":"Suite 31","pincode":2006},
{"id":333,"name":"Funabashi","address":"Suite 94","pincode":2007},
{"id":334,"name":"Tissa","address":"Suite 84","pincode":2010},
{"id":335,"name":"Labuhansumbawa","address":"Suite 68","pincode":2002},
{"id":336,"name":"Kopychyntsi","address":"3rd Floor","pincode":1995},
{"id":337,"name":"Juhaynah","address":"Room 799","pincode":2008},
{"id":338,"name":"Åkersberga","address":"2nd Floor","pincode":1996},
{"id":339,"name":"Angasmarca","address":"Room 593","pincode":2004},
{"id":340,"name":"Nagasari","address":"Room 969","pincode":2004},
{"id":341,"name":"Fort Smith","address":"Suite 20","pincode":2008},
{"id":342,"name":"Monaghan","address":"Apt 654","pincode":2009},
{"id":343,"name":"Orléans","address":"Room 1169","pincode":1955},
{"id":344,"name":"Gīvī","address":"Room 907","pincode":2012},
{"id":345,"name":"Sobreira","address":"Room 1480","pincode":2003},
{"id":346,"name":"Tangkilsari","address":"Room 905","pincode":2007},
{"id":347,"name":"Oenopu","address":"PO Box 72716","pincode":1991},
{"id":348,"name":"Dongshan","address":"12th Floor","pincode":2012},
{"id":349,"name":"Athy","address":"Suite 35","pincode":2001},
{"id":350,"name":"Nekrasovka","address":"Suite 54","pincode":2012},
{"id":351,"name":"Dallas","address":"14th Floor","pincode":1993},
{"id":352,"name":"La Estancia","address":"PO Box 33596","pincode":2008},
{"id":353,"name":"Kasama","address":"Apt 707","pincode":1986},
{"id":354,"name":"Örebro","address":"Apt 824","pincode":1991},
{"id":355,"name":"Hecheng","address":"PO Box 21567","pincode":1994},
{"id":356,"name":"Glushkovo","address":"2nd Floor","pincode":1995},
{"id":357,"name":"Kato Pyrgos","address":"PO Box 74539","pincode":1992},
{"id":358,"name":"Saint-Pierre-des-Corps","address":"Apt 1761","pincode":2000},
{"id":359,"name":"Shalqīya","address":"Room 1047","pincode":2003},
{"id":360,"name":"Guozhai","address":"Apt 1224","pincode":1998},
{"id":361,"name":"Lappajärvi","address":"Suite 53","pincode":2011},
{"id":362,"name":"Limenária","address":"Apt 1988","pincode":2008},
{"id":363,"name":"Tosno","address":"PO Box 90782","pincode":1988},
{"id":364,"name":"Lianghe","address":"Room 493","pincode":2003},
{"id":365,"name":"Maturín","address":"18th Floor","pincode":1994},
{"id":366,"name":"Toulouse","address":"Suite 51","pincode":1989},
{"id":367,"name":"Hostos","address":"PO Box 18864","pincode":2002},
{"id":368,"name":"Hope","address":"Apt 868","pincode":2009},
{"id":369,"name":"Peliyagoda","address":"Room 419","pincode":2007},
{"id":370,"name":"Messina","address":"Suite 94","pincode":2009},
{"id":371,"name":"Cankova","address":"Room 670","pincode":1996},
{"id":372,"name":"Bijia","address":"Apt 1972","pincode":2005},
{"id":373,"name":"Topola","address":"PO Box 46057","pincode":2005},
{"id":374,"name":"Shencang","address":"9th Floor","pincode":1991},
{"id":375,"name":"Palaran","address":"PO Box 29926","pincode":2004},
{"id":376,"name":"Bitaogan","address":"PO Box 36793","pincode":2009},
{"id":377,"name":"Anuling","address":"Apt 1783","pincode":2002},
{"id":378,"name":"Guadalupe","address":"Apt 1695","pincode":2007},
{"id":379,"name":"Hezheng Chengguanzhen","address":"Apt 1928","pincode":2011},
{"id":380,"name":"Murakami","address":"PO Box 96137","pincode":1994},
{"id":381,"name":"Yono","address":"14th Floor","pincode":2001},
{"id":382,"name":"Toyohashi","address":"Suite 28","pincode":1989},
{"id":383,"name":"Taling","address":"18th Floor","pincode":1996},
{"id":384,"name":"Santa Cruz","address":"PO Box 72417","pincode":2001},
{"id":385,"name":"Xiaopu","address":"Suite 22","pincode":2003},
{"id":386,"name":"Alubijid","address":"Apt 1940","pincode":1997},
{"id":387,"name":"Qianpai","address":"Apt 1946","pincode":2006},
{"id":388,"name":"Kore","address":"Suite 100","pincode":1967},
{"id":389,"name":"Guanjiabao","address":"Suite 37","pincode":1997},
{"id":390,"name":"Gongji","address":"Room 1762","pincode":1990},
{"id":391,"name":"Honolulu","address":"Room 1077","pincode":2001},
{"id":392,"name":"Jiangkouxu","address":"Room 1579","pincode":1984},
{"id":393,"name":"Mežica","address":"Suite 96","pincode":1995},
{"id":394,"name":"Manchester","address":"PO Box 69735","pincode":2013},
{"id":395,"name":"Vila Alva","address":"PO Box 86654","pincode":2007},
{"id":396,"name":"Bajomulyo","address":"Suite 27","pincode":2012},
{"id":397,"name":"La Sarre","address":"PO Box 33265","pincode":1999},
{"id":398,"name":"Sơn Tịnh","address":"7th Floor","pincode":1986},
{"id":399,"name":"Saint Louis","address":"PO Box 11281","pincode":1996},
{"id":400,"name":"Luangwa","address":"Apt 48","pincode":2002},
{"id":401,"name":"Göteborg","address":"Suite 78","pincode":2007},
{"id":402,"name":"Hudlice","address":"PO Box 93980","pincode":1998},
{"id":403,"name":"Jieshi","address":"PO Box 21931","pincode":2000},
{"id":404,"name":"Tajike’abati","address":"PO Box 36826","pincode":1999},
{"id":405,"name":"San Eduardo","address":"17th Floor","pincode":1996},
{"id":406,"name":"Dundee","address":"2nd Floor","pincode":2004},
{"id":407,"name":"Karabash","address":"PO Box 70138","pincode":1993},
{"id":408,"name":"Anyar","address":"Room 1224","pincode":2003},
{"id":409,"name":"Velyka Mykhaylivka","address":"Apt 585","pincode":1994},
{"id":410,"name":"Bonneuil-sur-Marne","address":"PO Box 85326","pincode":1993},
{"id":411,"name":"Taywanak Ilaya","address":"5th Floor","pincode":1992},
{"id":412,"name":"Changwon","address":"Apt 801","pincode":2002},
{"id":413,"name":"Xuji","address":"Room 929","pincode":1990},
{"id":414,"name":"Lākshām","address":"PO Box 98531","pincode":2006},
{"id":415,"name":"Krajan Dermawuharjo","address":"Room 365","pincode":2008},
{"id":416,"name":"Shiki","address":"Room 932","pincode":2006},
{"id":417,"name":"General Belgrano","address":"Suite 45","pincode":2002},
{"id":418,"name":"Tawau","address":"Apt 56","pincode":2008},
{"id":419,"name":"Thị Trấn Quán Lào","address":"13th Floor","pincode":2005},
{"id":420,"name":"Zakhim","address":"Suite 13","pincode":2005},
{"id":421,"name":"Ananindeua","address":"Suite 89","pincode":2012},
{"id":422,"name":"Höganäs","address":"Apt 1938","pincode":1994},
{"id":423,"name":"Yangong","address":"Room 890","pincode":2003},
{"id":424,"name":"Gnojnik","address":"PO Box 13593","pincode":1999},
{"id":425,"name":"Älvsbyn","address":"Apt 1915","pincode":1985},
{"id":426,"name":"Konakridee","address":"Room 375","pincode":1997},
{"id":427,"name":"Hacıhüseynli","address":"Suite 56","pincode":2007},
{"id":428,"name":"Moyamba","address":"Room 1391","pincode":2009},
{"id":429,"name":"Cuito","address":"Apt 635","pincode":2003},
{"id":430,"name":"Chicago","address":"Suite 1","pincode":1995},
{"id":431,"name":"Klagen","address":"12th Floor","pincode":2000},
{"id":432,"name":"Taihe","address":"Apt 83","pincode":1990},
{"id":433,"name":"El Aguacate","address":"Room 6","pincode":1964},
{"id":434,"name":"Port Antonio","address":"PO Box 94743","pincode":1993},
{"id":435,"name":"Shahkot","address":"Room 158","pincode":2005},
{"id":436,"name":"Staronizhestebliyevskaya","address":"PO Box 93136","pincode":1994},
{"id":437,"name":"Granja","address":"PO Box 8846","pincode":2003},
{"id":438,"name":"Tamahú","address":"PO Box 25085","pincode":2011},
{"id":439,"name":"Buraen","address":"19th Floor","pincode":2012},
{"id":440,"name":"Lai Cách","address":"7th Floor","pincode":2008},
{"id":441,"name":"Mabyan","address":"Suite 38","pincode":2008},
{"id":442,"name":"Lallayug","address":"Apt 5","pincode":2009},
{"id":443,"name":"Stockholm","address":"6th Floor","pincode":2000},
{"id":444,"name":"Acolla","address":"Suite 5","pincode":2011},
{"id":445,"name":"Krzczonów","address":"Apt 1564","pincode":1999},
{"id":446,"name":"Thị Trấn Bắc Yên","address":"Suite 66","pincode":1995},
{"id":447,"name":"Xiangyang","address":"PO Box 55940","pincode":1992},
{"id":448,"name":"Mokopane","address":"4th Floor","pincode":2002},
{"id":449,"name":"Apostolove","address":"PO Box 64605","pincode":2004},
{"id":450,"name":"Magutian","address":"Suite 63","pincode":2004},
{"id":451,"name":"Kalengwa","address":"Room 321","pincode":2009},
{"id":452,"name":"Guanagazapa","address":"Room 251","pincode":1997},
{"id":453,"name":"Sriwing","address":"PO Box 88510","pincode":2004},
{"id":454,"name":"Phrae","address":"Room 1159","pincode":2006},
{"id":455,"name":"Bromma","address":"PO Box 97044","pincode":2001},
{"id":456,"name":"Sarāb","address":"Room 1840","pincode":2006},
{"id":457,"name":"San Carlos","address":"Apt 338","pincode":1988},
{"id":458,"name":"Liuxia","address":"Apt 1484","pincode":1992},
{"id":459,"name":"Foumban","address":"Apt 798","pincode":1995},
{"id":460,"name":"Batu","address":"PO Box 20362","pincode":2009},
{"id":461,"name":"Polyarnyy","address":"Suite 16","pincode":1985},
{"id":462,"name":"Dŭstí","address":"PO Box 8846","pincode":1993},
{"id":463,"name":"Kil","address":"Room 631","pincode":1991},
{"id":464,"name":"Xintang","address":"Apt 711","pincode":2007},
{"id":465,"name":"Yixi","address":"Room 1612","pincode":2005},
{"id":466,"name":"Vranisht","address":"9th Floor","pincode":2001},
{"id":467,"name":"Sanying","address":"9th Floor","pincode":1994},
{"id":468,"name":"Novokuz’minki","address":"Suite 43","pincode":2006},
{"id":469,"name":"Gangbian","address":"PO Box 8695","pincode":2009},
{"id":470,"name":"Poretskoye","address":"PO Box 85655","pincode":2004},
{"id":471,"name":"Hongwei","address":"Apt 1166","pincode":2010},
{"id":472,"name":"Fengjiang","address":"13th Floor","pincode":1969},
{"id":473,"name":"Kainan","address":"PO Box 95229","pincode":1995},
{"id":474,"name":"Tiznit","address":"Apt 1102","pincode":2003},
{"id":475,"name":"Otavalo","address":"PO Box 75021","pincode":1974},
{"id":476,"name":"Kuchinarai","address":"Apt 483","pincode":1985},
{"id":477,"name":"Baini","address":"PO Box 69995","pincode":1992},
{"id":478,"name":"Wijewo","address":"Room 108","pincode":1992},
{"id":479,"name":"Tolitoli","address":"Apt 514","pincode":2011},
{"id":480,"name":"Changgucheng","address":"Apt 1312","pincode":1995},
{"id":481,"name":"Pisang","address":"Apt 948","pincode":2009},
{"id":482,"name":"Jiucheng","address":"Room 425","pincode":2011},
{"id":483,"name":"Almeria","address":"5th Floor","pincode":2000},
{"id":484,"name":"Aroa","address":"PO Box 29961","pincode":1993},
{"id":485,"name":"Pécs","address":"Suite 22","pincode":1996},
{"id":486,"name":"San Carlos","address":"Apt 1477","pincode":2012},
{"id":487,"name":"Mori","address":"13th Floor","pincode":1997},
{"id":488,"name":"Wangjiachang","address":"Room 270","pincode":1992},
{"id":489,"name":"Suwaduk","address":"PO Box 56043","pincode":1999},
{"id":490,"name":"Nowy Dwór Gdański","address":"6th Floor","pincode":2006},
{"id":491,"name":"Lampa","address":"PO Box 36559","pincode":1965},
{"id":492,"name":"Krasnyye Chetai","address":"7th Floor","pincode":2009},
{"id":493,"name":"Villa Ascasubi","address":"Room 733","pincode":2005},
{"id":494,"name":"Nueva Germania","address":"PO Box 49398","pincode":1998},
{"id":495,"name":"Poá","address":"20th Floor","pincode":1995},
{"id":496,"name":"Kakamega","address":"Suite 11","pincode":2002},
{"id":497,"name":"Kuanchuan","address":"Room 1472","pincode":2004},
{"id":498,"name":"Quinua","address":"Room 1688","pincode":2002},
{"id":499,"name":"Baoluan","address":"Room 1243","pincode":1992},
{"id":500,"name":"Bahāwalpur","address":"PO Box 51793","pincode":2000},
{"id":501,"name":"Oygon","address":"PO Box 8740","pincode":2012},
{"id":502,"name":"Charlotte","address":"Suite 56","pincode":2004},
{"id":503,"name":"New Washington","address":"Suite 5","pincode":1998},
{"id":504,"name":"Willowmore","address":"8th Floor","pincode":1985},
{"id":505,"name":"Morazán","address":"Apt 1756","pincode":2003},
{"id":506,"name":"Seda","address":"19th Floor","pincode":1994},
{"id":507,"name":"Yujia","address":"17th Floor","pincode":2008},
{"id":508,"name":"Longhua","address":"Apt 924","pincode":2006},
{"id":509,"name":"Klenčí pod Čerchovem","address":"Suite 34","pincode":1999},
{"id":510,"name":"Tahe","address":"Room 1856","pincode":1999},
{"id":511,"name":"Zhichanghe","address":"Room 1142","pincode":1992},
{"id":512,"name":"Rivière-du-Loup","address":"Apt 1588","pincode":1993},
{"id":513,"name":"Krajan Suco","address":"Suite 96","pincode":2011},
{"id":514,"name":"Pasirdalem","address":"Apt 1995","pincode":1992},
{"id":515,"name":"Pengdian","address":"Apt 494","pincode":2009},
{"id":516,"name":"Xixiang","address":"Room 689","pincode":2000},
{"id":517,"name":"Sarakhs","address":"Suite 45","pincode":2011},
{"id":518,"name":"Oslo","address":"Apt 456","pincode":1996},
{"id":519,"name":"Ternopil’","address":"19th Floor","pincode":1992},
{"id":520,"name":"Ngedhusuba","address":"PO Box 76918","pincode":2004},
{"id":521,"name":"Fos-sur-Mer","address":"Suite 76","pincode":1995},
{"id":522,"name":"Antigonish","address":"Apt 1074","pincode":1992},
{"id":523,"name":"Sergio Osmeña Sr","address":"PO Box 52379","pincode":2005},
{"id":524,"name":"Embarcación","address":"Apt 368","pincode":2000},
{"id":525,"name":"Tancheng","address":"Room 431","pincode":2004},
{"id":526,"name":"Jifnā","address":"PO Box 26381","pincode":2002},
{"id":527,"name":"San Diego","address":"Apt 1770","pincode":2000},
{"id":528,"name":"Klimavichy","address":"PO Box 36021","pincode":1993},
{"id":529,"name":"Kunčina","address":"1st Floor","pincode":1993},
{"id":530,"name":"Budaka","address":"PO Box 88142","pincode":2005},
{"id":531,"name":"Quelimane","address":"Apt 725","pincode":1992},
{"id":532,"name":"Lusacan","address":"PO Box 24219","pincode":1968},
{"id":533,"name":"Victoria West","address":"3rd Floor","pincode":1999},
{"id":534,"name":"Caper","address":"Apt 372","pincode":2009},
{"id":535,"name":"Kolomak","address":"Suite 33","pincode":2009},
{"id":536,"name":"Apaga","address":"6th Floor","pincode":1991},
{"id":537,"name":"Shima","address":"Suite 4","pincode":1994},
{"id":538,"name":"Volzhsk","address":"PO Box 53466","pincode":2003},
{"id":539,"name":"Wadeng","address":"4th Floor","pincode":2003},
{"id":540,"name":"Nyandoma","address":"Apt 1666","pincode":2000},
{"id":541,"name":"Tatou","address":"9th Floor","pincode":2008},
{"id":542,"name":"Bakov nad Jizerou","address":"PO Box 7058","pincode":2009},
{"id":543,"name":"Santo Isidro","address":"Apt 22","pincode":1997},
{"id":544,"name":"Huangmu","address":"4th Floor","pincode":2012},
{"id":545,"name":"Dulangan","address":"PO Box 49333","pincode":2004},
{"id":546,"name":"Tulay","address":"Suite 40","pincode":2011},
{"id":547,"name":"Ceadîr-Lunga","address":"Room 633","pincode":1998},
{"id":548,"name":"Viña del Mar","address":"6th Floor","pincode":2001},
{"id":549,"name":"Coro","address":"Suite 93","pincode":2000},
{"id":550,"name":"Naguilian","address":"Suite 66","pincode":2009},
{"id":551,"name":"Arlöv","address":"3rd Floor","pincode":2005},
{"id":552,"name":"Braunschweig","address":"Apt 1683","pincode":1991},
{"id":553,"name":"Havtsal","address":"Apt 1738","pincode":2006},
{"id":554,"name":"Campana","address":"Room 1423","pincode":2001},
{"id":555,"name":"Hengliang","address":"3rd Floor","pincode":1986},
{"id":556,"name":"Ngembel","address":"13th Floor","pincode":1998},
{"id":557,"name":"Hairag","address":"Suite 47","pincode":1989},
{"id":558,"name":"Binitinan","address":"Apt 144","pincode":2000},
{"id":559,"name":"Ivry-sur-Seine","address":"Suite 40","pincode":1999},
{"id":560,"name":"Ucluelet","address":"3rd Floor","pincode":1994},
{"id":561,"name":"Piedras","address":"Apt 69","pincode":2004},
{"id":562,"name":"Birmingham","address":"7th Floor","pincode":2004},
{"id":563,"name":"Capatárida","address":"Room 1099","pincode":1992},
{"id":564,"name":"Kabare","address":"Room 718","pincode":2013},
{"id":565,"name":"Maodao","address":"4th Floor","pincode":2007},
{"id":566,"name":"Dobrošte","address":"Apt 133","pincode":2010},
{"id":567,"name":"Arrifes","address":"Apt 1052","pincode":2011},
{"id":568,"name":"Pointe-Noire","address":"Suite 45","pincode":2004},
{"id":569,"name":"Cibangun Tengah","address":"Suite 71","pincode":2012},
{"id":570,"name":"Tōgane","address":"PO Box 21561","pincode":1996},
{"id":571,"name":"Reszel","address":"Apt 1797","pincode":2006},
{"id":572,"name":"Kuantan","address":"Room 276","pincode":2005},
{"id":573,"name":"Malaya Dubna","address":"Room 929","pincode":2009},
{"id":574,"name":"Izumi","address":"Room 445","pincode":1993},
{"id":575,"name":"Lijie","address":"PO Box 86817","pincode":1994},
{"id":576,"name":"Vera Cruz","address":"Suite 80","pincode":1995},
{"id":577,"name":"Stockholm","address":"Apt 1652","pincode":1989},
{"id":578,"name":"Campoalegre","address":"Suite 39","pincode":1998},
{"id":579,"name":"Trongsa","address":"Apt 1616","pincode":2008},
{"id":580,"name":"Acheng","address":"PO Box 10494","pincode":2005},
{"id":581,"name":"Villeneuve-lès-Avignon","address":"Room 1732","pincode":1997},
{"id":582,"name":"Gaoping","address":"PO Box 64962","pincode":2000},
{"id":583,"name":"Saint-Jean-de-Védas","address":"Room 855","pincode":2005},
{"id":584,"name":"Oshawa","address":"Suite 82","pincode":1984},
{"id":585,"name":"Yaxi","address":"3rd Floor","pincode":2003},
{"id":586,"name":"Salavan","address":"Apt 1950","pincode":2013},
{"id":587,"name":"Papër","address":"10th Floor","pincode":2011},
{"id":588,"name":"Portelinha","address":"PO Box 68224","pincode":2006},
{"id":589,"name":"Hluhluwe","address":"PO Box 14346","pincode":2005},
{"id":590,"name":"Ḩarīb","address":"Apt 862","pincode":2003},
{"id":591,"name":"Metsavan","address":"Room 1860","pincode":1999},
{"id":592,"name":"Natonin","address":"PO Box 45468","pincode":2003},
{"id":593,"name":"Vũ Thư","address":"Suite 46","pincode":1992},
{"id":594,"name":"Diffa","address":"PO Box 27338","pincode":2001},
{"id":595,"name":"Khanino","address":"15th Floor","pincode":1988},
{"id":596,"name":"Hrvatska Kostajnica","address":"Room 1301","pincode":1997},
{"id":597,"name":"Nīkêh","address":"Room 862","pincode":2001},
{"id":598,"name":"Kainan","address":"PO Box 67137","pincode":2009},
{"id":599,"name":"Ligang","address":"Apt 984","pincode":2006},
{"id":600,"name":"Daleszyce","address":"PO Box 78239","pincode":1995},
{"id":601,"name":"Puksoozero","address":"Room 1476","pincode":2007},
{"id":602,"name":"Enjiang","address":"Suite 34","pincode":1996},
{"id":603,"name":"El Lolo","address":"3rd Floor","pincode":2011},
{"id":604,"name":"Wenshao","address":"7th Floor","pincode":1989},
{"id":605,"name":"Rio Negrinho","address":"Room 294","pincode":2000},
{"id":606,"name":"Banjar Sembunggede","address":"Suite 79","pincode":2008},
{"id":607,"name":"Dasht-e Qal‘ah","address":"Room 324","pincode":2006},
{"id":608,"name":"Kiambu","address":"PO Box 5332","pincode":2010},
{"id":609,"name":"Sąspów","address":"Apt 1305","pincode":1994},
{"id":610,"name":"Ciudad Bolívar","address":"Suite 35","pincode":1978},
{"id":611,"name":"Koceljeva","address":"PO Box 72030","pincode":2000},
{"id":612,"name":"Rîşcani","address":"Room 570","pincode":2007},
{"id":613,"name":"Chaihu","address":"Suite 32","pincode":2009},
{"id":614,"name":"Pacobamba","address":"PO Box 52398","pincode":1999},
{"id":615,"name":"Selebi-Phikwe","address":"PO Box 87821","pincode":2003},
{"id":616,"name":"Tower","address":"PO Box 3034","pincode":2004},
{"id":617,"name":"Infanta","address":"Apt 1518","pincode":1998},
{"id":618,"name":"Mosina","address":"Apt 598","pincode":1990},
{"id":619,"name":"Kotkot","address":"PO Box 49612","pincode":2008},
{"id":620,"name":"Mamer","address":"Room 1885","pincode":2005},
{"id":621,"name":"Braunschweig","address":"9th Floor","pincode":2001},
{"id":622,"name":"Sinhyeon","address":"Apt 130","pincode":2010},
{"id":623,"name":"Minyat an Naşr","address":"Apt 7","pincode":2007},
{"id":624,"name":"Yumaguzino","address":"Apt 787","pincode":2009},
{"id":625,"name":"Yangjiapo","address":"Room 639","pincode":1988},
{"id":626,"name":"Smiřice","address":"Apt 1199","pincode":1992},
{"id":627,"name":"Midland","address":"Apt 1557","pincode":2006},
{"id":628,"name":"North Cowichan","address":"Room 1664","pincode":2012},
{"id":629,"name":"Argelia","address":"PO Box 8944","pincode":2001},
{"id":630,"name":"Bang Khon Thi","address":"PO Box 8083","pincode":1999},
{"id":631,"name":"Soledar","address":"Room 1681","pincode":1966},
{"id":632,"name":"Mekkaw","address":"Room 1036","pincode":1984},
{"id":633,"name":"Loakulu","address":"PO Box 66363","pincode":1997},
{"id":634,"name":"Palestina","address":"PO Box 93777","pincode":1989},
{"id":635,"name":"Karnobat","address":"Suite 43","pincode":2004},
{"id":636,"name":"Caruaru","address":"Suite 58","pincode":1998},
{"id":637,"name":"Chełmiec","address":"Apt 1473","pincode":1997},
{"id":638,"name":"Novopokrovka","address":"19th Floor","pincode":1999},
{"id":639,"name":"Xinchengpu","address":"PO Box 23397","pincode":1986},
{"id":640,"name":"Linköping","address":"Room 801","pincode":1997},
{"id":641,"name":"Sekampung","address":"Apt 1554","pincode":2008},
{"id":642,"name":"Colca","address":"Suite 4","pincode":1989},
{"id":643,"name":"Krasnokuts’k","address":"3rd Floor","pincode":2008},
{"id":644,"name":"Bailu","address":"PO Box 38798","pincode":1992},
{"id":645,"name":"Luau","address":"Suite 63","pincode":2007},
{"id":646,"name":"Maebashi-shi","address":"PO Box 84999","pincode":2010},
{"id":647,"name":"Āwash","address":"PO Box 48069","pincode":1986},
{"id":648,"name":"Ciemas","address":"PO Box 89010","pincode":2002},
{"id":649,"name":"Xushangqiao","address":"16th Floor","pincode":2006},
{"id":650,"name":"Pueblo Nuevo","address":"Room 1185","pincode":1998},
{"id":651,"name":"Oeleon","address":"Suite 25","pincode":1991},
{"id":652,"name":"Tanahwurung","address":"Apt 613","pincode":1996},
{"id":653,"name":"Oliveirinha","address":"Room 146","pincode":1999},
{"id":654,"name":"Trới","address":"Suite 35","pincode":2010},
{"id":655,"name":"Yanahuanca","address":"PO Box 8718","pincode":2009},
{"id":656,"name":"Kajok","address":"Suite 1","pincode":2009},
{"id":657,"name":"Kanturk","address":"Room 1973","pincode":2006},
{"id":658,"name":"Klášterec nad Ohří","address":"Suite 52","pincode":2001},
{"id":659,"name":"Jiaocheng","address":"12th Floor","pincode":1998},
{"id":660,"name":"Zborovice","address":"7th Floor","pincode":2009},
{"id":661,"name":"Potosí","address":"PO Box 66687","pincode":2012},
{"id":662,"name":"Jinshiqiao","address":"Apt 858","pincode":1997},
{"id":663,"name":"Jasper Park Lodge","address":"PO Box 24829","pincode":2010},
{"id":664,"name":"Itajuípe","address":"Suite 80","pincode":2009},
{"id":665,"name":"Velyka Pysarivka","address":"14th Floor","pincode":2002},
{"id":666,"name":"Taurage","address":"PO Box 30172","pincode":1996},
{"id":667,"name":"Kamyanyuki","address":"5th Floor","pincode":1986},
{"id":668,"name":"Shuangshi","address":"Apt 1161","pincode":2008},
{"id":669,"name":"Kil","address":"Apt 182","pincode":2010},
{"id":670,"name":"Landázuri","address":"Suite 58","pincode":2002},
{"id":671,"name":"Pakemitan Dua","address":"Apt 1151","pincode":1993},
{"id":672,"name":"Nizhniy Ufaley","address":"8th Floor","pincode":1994},
{"id":673,"name":"Vilarinho da Castanheira","address":"Suite 71","pincode":1992},
{"id":674,"name":"Praia da Vagueira","address":"Room 705","pincode":2002},
{"id":675,"name":"Seroa","address":"Room 319","pincode":1997},
{"id":676,"name":"Tagbacan Ibaba","address":"Room 880","pincode":2007},
{"id":677,"name":"Kariaí","address":"Apt 1712","pincode":1995},
{"id":678,"name":"Bintawan","address":"4th Floor","pincode":2004},
{"id":679,"name":"Walagar","address":"15th Floor","pincode":1993},
{"id":680,"name":"Kalebun","address":"18th Floor","pincode":2006},
{"id":681,"name":"Jalupang Dua","address":"Room 595","pincode":2004},
{"id":682,"name":"Fangxian","address":"Suite 18","pincode":2011},
{"id":683,"name":"Ferbane","address":"Apt 1567","pincode":1999},
{"id":684,"name":"Fundación","address":"18th Floor","pincode":2002},
{"id":685,"name":"Pérama","address":"12th Floor","pincode":1999},
{"id":686,"name":"Cortes","address":"PO Box 5889","pincode":1995},
{"id":687,"name":"Leijiadian","address":"Room 1001","pincode":1985},
{"id":688,"name":"Kadengan","address":"Suite 31","pincode":1987},
{"id":689,"name":"Shibata","address":"Suite 72","pincode":2000},
{"id":690,"name":"Amiens","address":"PO Box 3179","pincode":2004},
{"id":691,"name":"Leubatang","address":"PO Box 19957","pincode":1999},
{"id":692,"name":"Shuiji","address":"Room 304","pincode":2005},
{"id":693,"name":"Businga","address":"Suite 90","pincode":2003},
{"id":694,"name":"Siuna","address":"Room 1452","pincode":1997},
{"id":695,"name":"Gamawa","address":"Room 933","pincode":1992},
{"id":696,"name":"Amagbagan","address":"PO Box 60266","pincode":2005},
{"id":697,"name":"Bangued","address":"PO Box 86822","pincode":2002},
{"id":698,"name":"Hats’avan","address":"Room 1067","pincode":1965},
{"id":699,"name":"Panjakent","address":"PO Box 12388","pincode":2009},
{"id":700,"name":"Goiatuba","address":"Room 499","pincode":1990},
{"id":701,"name":"Xiaomenjia","address":"Apt 335","pincode":1997},
{"id":702,"name":"Norton","address":"6th Floor","pincode":2002},
{"id":703,"name":"Vlachovice","address":"Apt 1255","pincode":1986},
{"id":704,"name":"Gaoxu","address":"Room 1838","pincode":1995},
{"id":705,"name":"Kesheng","address":"PO Box 49036","pincode":2011},
{"id":706,"name":"Wangcao","address":"PO Box 28247","pincode":2008},
{"id":707,"name":"Yanmenkou","address":"PO Box 51237","pincode":1998},
{"id":708,"name":"Machang","address":"Suite 88","pincode":1997},
{"id":709,"name":"Meudon","address":"18th Floor","pincode":2005},
{"id":710,"name":"Datun","address":"Apt 884","pincode":2011},
{"id":711,"name":"Tamontaka","address":"Apt 362","pincode":1985},
{"id":712,"name":"Na Muen","address":"Apt 50","pincode":2009},
{"id":713,"name":"Khafizan","address":"Room 1082","pincode":2009},
{"id":714,"name":"As Sūsah","address":"Room 1559","pincode":2003},
{"id":715,"name":"Huari","address":"Room 132","pincode":2006},
{"id":716,"name":"Dhahab","address":"Suite 29","pincode":1997},
{"id":717,"name":"Bắc Kạn","address":"Room 1613","pincode":2008},
{"id":718,"name":"Boguszów-Gorce","address":"PO Box 80931","pincode":2011},
{"id":719,"name":"Bezenchuk","address":"Apt 1671","pincode":2003},
{"id":720,"name":"Kesugihan","address":"Suite 85","pincode":2007},
{"id":721,"name":"Wakefield","address":"7th Floor","pincode":1990},
{"id":722,"name":"Lauro de Freitas","address":"Suite 88","pincode":2003},
{"id":723,"name":"Fuenlabrada","address":"Apt 1490","pincode":2000},
{"id":724,"name":"Roma","address":"PO Box 1216","pincode":1993},
{"id":725,"name":"Karangbadar Kidul","address":"PO Box 42218","pincode":1987},
{"id":726,"name":"Buzhakan","address":"PO Box 52162","pincode":2012},
{"id":727,"name":"Sheli","address":"Apt 994","pincode":2006},
{"id":728,"name":"Ketangi","address":"Suite 82","pincode":2000},
{"id":729,"name":"Annecy-le-Vieux","address":"11th Floor","pincode":2008},
{"id":730,"name":"Znamenskoye","address":"4th Floor","pincode":1986},
{"id":731,"name":"Svalöv","address":"3rd Floor","pincode":2000},
{"id":732,"name":"Talisay","address":"18th Floor","pincode":2003},
{"id":733,"name":"Xinpu","address":"Suite 15","pincode":1989},
{"id":734,"name":"Babakan","address":"Suite 33","pincode":2010},
{"id":735,"name":"Keli","address":"9th Floor","pincode":2010},
{"id":736,"name":"Veřovice","address":"Suite 47","pincode":1986},
{"id":737,"name":"Cieurih Satu","address":"PO Box 20659","pincode":2008},
{"id":738,"name":"San Antonio Huista","address":"Apt 36","pincode":1991},
{"id":739,"name":"Suugaant","address":"Suite 30","pincode":2008},
{"id":740,"name":"Maní","address":"Apt 1610","pincode":2006},
{"id":741,"name":"Goubétto","address":"18th Floor","pincode":1996},
{"id":742,"name":"Chumen","address":"Room 1636","pincode":1997},
{"id":743,"name":"Xiazhai","address":"Suite 40","pincode":2003},
{"id":744,"name":"Quimilí","address":"Apt 762","pincode":2003},
{"id":745,"name":"Reggada","address":"Apt 1990","pincode":2002},
{"id":746,"name":"Sukadana","address":"PO Box 48763","pincode":1997},
{"id":747,"name":"Lyuban’","address":"Suite 89","pincode":2011},
{"id":748,"name":"Cikalong","address":"Suite 83","pincode":1996},
{"id":749,"name":"Strawczyn","address":"PO Box 91308","pincode":2007},
{"id":750,"name":"Bandaran","address":"1st Floor","pincode":1997},
{"id":751,"name":"Jiazhuyuan","address":"PO Box 48569","pincode":2012},
{"id":752,"name":"Alue Glumpang","address":"Apt 1452","pincode":1994},
{"id":753,"name":"Tegalgede","address":"Room 1679","pincode":1996},
{"id":754,"name":"Mambalan","address":"10th Floor","pincode":1993},
{"id":755,"name":"Kalaxilike","address":"PO Box 3396","pincode":2008},
{"id":756,"name":"Naushki","address":"PO Box 51718","pincode":1992},
{"id":757,"name":"Misawa","address":"Apt 1468","pincode":2006},
{"id":758,"name":"Krojo","address":"Apt 1798","pincode":2007},
{"id":759,"name":"Oulad Frej","address":"Apt 421","pincode":2007},
{"id":760,"name":"Pucallpa","address":"PO Box 59556","pincode":2008},
{"id":761,"name":"Velké Losiny","address":"PO Box 38810","pincode":2001},
{"id":762,"name":"Banjar Swastika","address":"13th Floor","pincode":2012},
{"id":763,"name":"Lençóis Paulista","address":"Apt 350","pincode":2008},
{"id":764,"name":"Novoishimskiy","address":"PO Box 60462","pincode":2009},
{"id":765,"name":"Malawa","address":"10th Floor","pincode":2000},
{"id":766,"name":"Piastów","address":"Apt 1068","pincode":1999},
{"id":767,"name":"Kombësi","address":"9th Floor","pincode":1987},
{"id":768,"name":"Dąbrowa","address":"Suite 100","pincode":1992},
{"id":769,"name":"Komletinci","address":"2nd Floor","pincode":1990},
{"id":770,"name":"Angao","address":"PO Box 28509","pincode":1997},
{"id":771,"name":"Sumy","address":"Suite 9","pincode":2004},
{"id":772,"name":"Nanxing","address":"11th Floor","pincode":1992},
{"id":773,"name":"Lebak","address":"Room 887","pincode":1986},
{"id":774,"name":"Changbao","address":"Apt 788","pincode":1985},
{"id":775,"name":"Pravdinsk","address":"Room 1194","pincode":1998},
{"id":776,"name":"Digah","address":"2nd Floor","pincode":2008},
{"id":777,"name":"Talalora","address":"PO Box 41077","pincode":2004},
{"id":778,"name":"Tovačov","address":"Suite 12","pincode":1995},
{"id":779,"name":"Khao Kho","address":"Apt 1445","pincode":2003},
{"id":780,"name":"Kolomak","address":"Suite 10","pincode":1998},
{"id":781,"name":"Jieshan","address":"2nd Floor","pincode":1990},
{"id":782,"name":"Guankou","address":"Suite 37","pincode":2008},
{"id":783,"name":"Ariana","address":"14th Floor","pincode":2010},
{"id":784,"name":"Soeng Sang","address":"Room 1312","pincode":2011},
{"id":785,"name":"Santa Bernardina","address":"PO Box 4616","pincode":1985},
{"id":786,"name":"Meizhou","address":"Room 663","pincode":1999},
{"id":787,"name":"Porto-Novo","address":"Suite 94","pincode":2002},
{"id":788,"name":"Kowalewo Pomorskie","address":"Apt 1377","pincode":2007},
{"id":789,"name":"Zamora","address":"PO Box 36053","pincode":2006},
{"id":790,"name":"Songkan","address":"6th Floor","pincode":1997},
{"id":791,"name":"Yuewan","address":"Apt 1538","pincode":2004},
{"id":792,"name":"Logroño","address":"19th Floor","pincode":1993},
{"id":793,"name":"Homa Bay","address":"Apt 1224","pincode":1994},
{"id":794,"name":"Bibrka","address":"Room 826","pincode":1993},
{"id":795,"name":"Lebu","address":"PO Box 989","pincode":2004},
{"id":796,"name":"Gujiang","address":"Room 339","pincode":2011},
{"id":797,"name":"Shengze","address":"PO Box 91065","pincode":1995},
{"id":798,"name":"Aībak","address":"Room 1929","pincode":2007},
{"id":799,"name":"Beigang","address":"PO Box 28141","pincode":1997},
{"id":800,"name":"Xixiang","address":"Room 246","pincode":1986},
{"id":801,"name":"Cholargós","address":"PO Box 11347","pincode":2006},
{"id":802,"name":"Saint-Augustin-de-Desmaures","address":"PO Box 4997","pincode":2003},
{"id":803,"name":"Vel’sk","address":"Room 1810","pincode":2009},
{"id":804,"name":"Izobil’nyy","address":"Suite 98","pincode":2010},
{"id":805,"name":"Nantang","address":"Suite 26","pincode":2009},
{"id":806,"name":"Khulo","address":"Room 1384","pincode":1999},
{"id":807,"name":"Černelavci","address":"6th Floor","pincode":2012},
{"id":808,"name":"‘Amd","address":"Room 344","pincode":2008},
{"id":809,"name":"Little Baguio","address":"Suite 1","pincode":1995},
{"id":810,"name":"Dongshan","address":"Suite 88","pincode":2005},
{"id":811,"name":"Hongtu","address":"18th Floor","pincode":2000},
{"id":812,"name":"Daugai","address":"PO Box 77262","pincode":2004},
{"id":813,"name":"Suncun","address":"PO Box 11923","pincode":2000},
{"id":814,"name":"Kalisari","address":"Room 1004","pincode":2000},
{"id":815,"name":"Maoping","address":"PO Box 18073","pincode":1994},
{"id":816,"name":"Sundre","address":"Apt 1813","pincode":2000},
{"id":817,"name":"Lanchyn","address":"Room 1382","pincode":2011},
{"id":818,"name":"Hangwula","address":"Apt 530","pincode":2010},
{"id":819,"name":"Spitak","address":"19th Floor","pincode":2003},
{"id":820,"name":"Sarzedo","address":"Apt 1532","pincode":2006},
{"id":821,"name":"Foz Giraldo","address":"4th Floor","pincode":2002},
{"id":822,"name":"Toyooka","address":"Room 1305","pincode":1997},
{"id":823,"name":"Zongga","address":"PO Box 33359","pincode":2010},
{"id":824,"name":"Beaufort","address":"Suite 95","pincode":2005},
{"id":825,"name":"K’olīto","address":"PO Box 95938","pincode":1993},
{"id":826,"name":"Bahuang","address":"Apt 548","pincode":1992},
{"id":827,"name":"Nîmes","address":"Apt 384","pincode":2006},
{"id":828,"name":"Caomiao","address":"Suite 27","pincode":1988},
{"id":829,"name":"Kizil","address":"PO Box 3028","pincode":2000},
{"id":830,"name":"Inuvik","address":"3rd Floor","pincode":2005},
{"id":831,"name":"Nielisz","address":"Suite 91","pincode":2008},
{"id":832,"name":"Al Maḩallah al Kubrá","address":"Apt 1025","pincode":1998},
{"id":833,"name":"Mosina","address":"Apt 412","pincode":1993},
{"id":834,"name":"Philipsburg","address":"PO Box 78027","pincode":1995},
{"id":835,"name":"Tremembé","address":"18th Floor","pincode":1997},
{"id":836,"name":"Reykjanesbær","address":"18th Floor","pincode":1996},
{"id":837,"name":"Strelitsa","address":"Apt 945","pincode":1996},
{"id":838,"name":"Norrköping","address":"PO Box 30731","pincode":2012},
{"id":839,"name":"Wufeng","address":"10th Floor","pincode":1965},
{"id":840,"name":"São José dos Campos","address":"PO Box 59026","pincode":1991},
{"id":841,"name":"N'Djamena","address":"Apt 192","pincode":2012},
{"id":842,"name":"Lasi Dua","address":"3rd Floor","pincode":1986},
{"id":843,"name":"Xiaoyangqi","address":"Room 1553","pincode":1989},
{"id":844,"name":"Bua Yai","address":"13th Floor","pincode":1988},
{"id":845,"name":"Kitcharao","address":"Suite 31","pincode":2008},
{"id":846,"name":"Xichang","address":"PO Box 69836","pincode":2002},
{"id":847,"name":"Santa Cruz","address":"Room 1138","pincode":2001},
{"id":848,"name":"Levin","address":"Suite 54","pincode":2004},
{"id":849,"name":"Mokwa","address":"Room 1510","pincode":2010},
{"id":850,"name":"Zhukovskiy","address":"3rd Floor","pincode":2006},
{"id":851,"name":"Sudislavl’","address":"Suite 6","pincode":2009},
{"id":852,"name":"Lešná","address":"Apt 1232","pincode":2003},
{"id":853,"name":"Kašperské Hory","address":"4th Floor","pincode":2013},
{"id":854,"name":"Al Hāshimīyah","address":"Apt 174","pincode":2012},
{"id":855,"name":"Puqian","address":"Apt 1156","pincode":2006},
{"id":856,"name":"Longzhong","address":"PO Box 66121","pincode":2007},
{"id":857,"name":"Rizal","address":"PO Box 52144","pincode":1992},
{"id":858,"name":"Ostrów Lubelski","address":"Apt 1329","pincode":2006},
{"id":859,"name":"Hněvotín","address":"Apt 1987","pincode":1998},
{"id":860,"name":"An Naşşārīyah","address":"Room 9","pincode":1986},
{"id":861,"name":"Giồng Trôm","address":"Room 688","pincode":1996},
{"id":862,"name":"Bharatpur","address":"PO Box 1123","pincode":1995},
{"id":863,"name":"Nossa Senhora da Glória","address":"Suite 53","pincode":2005},
{"id":864,"name":"Acomayo","address":"Apt 1065","pincode":2012},
{"id":865,"name":"Dhaka","address":"Suite 24","pincode":1968},
{"id":866,"name":"Wau","address":"Apt 1418","pincode":2011},
{"id":867,"name":"Dordrecht","address":"PO Box 51352","pincode":2007},
{"id":868,"name":"Acobamba","address":"10th Floor","pincode":2000},
{"id":869,"name":"New York City","address":"PO Box 15567","pincode":2012},
{"id":870,"name":"Luodian","address":"Apt 1539","pincode":2005},
{"id":871,"name":"Aparecida de Goiânia","address":"Room 910","pincode":2007},
{"id":872,"name":"Berlin","address":"Apt 367","pincode":2007},
{"id":873,"name":"Colcabamba","address":"PO Box 22764","pincode":1980},
{"id":874,"name":"Panggung","address":"Room 1093","pincode":2002},
{"id":875,"name":"Huanggexi","address":"2nd Floor","pincode":2010},
{"id":876,"name":"Klobuky","address":"Room 1835","pincode":2001},
{"id":877,"name":"Mao","address":"7th Floor","pincode":1998},
{"id":878,"name":"Kumagunnam","address":"Apt 1007","pincode":2002},
{"id":879,"name":"Anqing","address":"Apt 923","pincode":2011},
{"id":880,"name":"Prigrevica","address":"PO Box 68801","pincode":1994},
{"id":881,"name":"Chenhu","address":"Apt 787","pincode":2003},
{"id":882,"name":"Maniowy","address":"8th Floor","pincode":2004},
{"id":883,"name":"Gostimë","address":"Apt 26","pincode":2007},
{"id":884,"name":"Xiaolan","address":"20th Floor","pincode":1991},
{"id":885,"name":"Youxikou","address":"Room 900","pincode":2009},
{"id":886,"name":"Orissaare","address":"Room 416","pincode":2003},
{"id":887,"name":"Genting","address":"Apt 739","pincode":2001},
{"id":888,"name":"Yegorlykskaya","address":"14th Floor","pincode":2002},
{"id":889,"name":"Dake","address":"Suite 52","pincode":2005},
{"id":890,"name":"Yangiobod","address":"PO Box 3357","pincode":2002},
{"id":891,"name":"Abrantes","address":"9th Floor","pincode":1994},
{"id":892,"name":"Fengtang","address":"PO Box 4219","pincode":2000},
{"id":893,"name":"Miskolc","address":"9th Floor","pincode":2004},
{"id":894,"name":"Beishan","address":"Apt 983","pincode":1999},
{"id":895,"name":"Moriya","address":"Suite 26","pincode":1995},
{"id":896,"name":"Omaha","address":"Apt 1255","pincode":1994},
{"id":897,"name":"Guanmiao","address":"PO Box 68534","pincode":1991},
{"id":898,"name":"Gwadabawa","address":"Room 446","pincode":1994},
{"id":899,"name":"Tambobamba","address":"3rd Floor","pincode":2008},
{"id":900,"name":"Warungbuah","address":"Apt 997","pincode":2003},
{"id":901,"name":"Muli","address":"Suite 99","pincode":2003},
{"id":902,"name":"Porto Seguro","address":"Suite 21","pincode":1998},
{"id":903,"name":"Nesterovskaya","address":"Apt 77","pincode":2010},
{"id":904,"name":"Dayuan","address":"PO Box 95051","pincode":2002},
{"id":905,"name":"Williamsfield","address":"PO Box 49955","pincode":1998},
{"id":906,"name":"Żywiec","address":"Room 1120","pincode":2008},
{"id":907,"name":"Isheyevka","address":"Apt 1209","pincode":1987},
{"id":908,"name":"Bologna","address":"18th Floor","pincode":1986},
{"id":909,"name":"Pithári","address":"5th Floor","pincode":2006},
{"id":910,"name":"Itambé","address":"PO Box 79982","pincode":1986},
{"id":911,"name":"Songshi","address":"Apt 1517","pincode":2003},
{"id":912,"name":"Jiaoqiao","address":"Suite 18","pincode":1996},
{"id":913,"name":"Dayangzhou","address":"PO Box 78273","pincode":1994},
{"id":914,"name":"Cergy-Pontoise","address":"Suite 4","pincode":2001},
{"id":915,"name":"Dabai","address":"11th Floor","pincode":2006},
{"id":916,"name":"Pidvynohradiv","address":"PO Box 31089","pincode":2008},
{"id":917,"name":"Mayang","address":"Suite 85","pincode":1996},
{"id":918,"name":"Rinang","address":"Suite 44","pincode":2011},
{"id":919,"name":"Kuantan","address":"Room 1430","pincode":1992},
{"id":920,"name":"El Paso","address":"PO Box 86795","pincode":2001},
{"id":921,"name":"Banī an Nahārī","address":"PO Box 58114","pincode":2003},
{"id":922,"name":"Mārupe","address":"Room 1847","pincode":2011},
{"id":923,"name":"Kuala Lumpur","address":"17th Floor","pincode":1997},
{"id":924,"name":"Krajan","address":"Suite 35","pincode":2003},
{"id":925,"name":"Barberton","address":"19th Floor","pincode":1996},
{"id":926,"name":"Kampene","address":"Room 756","pincode":2008},
{"id":927,"name":"Carcarañá","address":"Room 1249","pincode":1989},
{"id":928,"name":"Haoyi","address":"8th Floor","pincode":1995},
{"id":929,"name":"Balong Wetan","address":"15th Floor","pincode":2008},
{"id":930,"name":"Tuanchengshan","address":"Room 112","pincode":1998},
{"id":931,"name":"Łagów","address":"Apt 122","pincode":2011},
{"id":932,"name":"Ilhéus","address":"PO Box 34404","pincode":2000},
{"id":933,"name":"Laju Kidul","address":"PO Box 93509","pincode":1998},
{"id":934,"name":"Cijoho","address":"Suite 96","pincode":1994},
{"id":935,"name":"Ledok","address":"Room 1407","pincode":1993},
{"id":936,"name":"Taavetti","address":"Suite 52","pincode":1988},
{"id":937,"name":"Klisura","address":"14th Floor","pincode":2008},
{"id":938,"name":"Lipnica Wielka","address":"Suite 94","pincode":2000},
{"id":939,"name":"Birmingham","address":"Suite 62","pincode":1994},
{"id":940,"name":"Ruchihe","address":"PO Box 53605","pincode":1994},
{"id":941,"name":"Shreveport","address":"8th Floor","pincode":2011},
{"id":942,"name":"Rezovac","address":"Room 1072","pincode":2011},
{"id":943,"name":"Buenavista","address":"Suite 34","pincode":2009},
{"id":944,"name":"Abonnema","address":"Apt 623","pincode":2011},
{"id":945,"name":"Sadská","address":"PO Box 25754","pincode":2011},
{"id":946,"name":"Al Jamīmah","address":"PO Box 65749","pincode":1985},
{"id":947,"name":"Koíla","address":"PO Box 45537","pincode":1994},
{"id":948,"name":"Wangping","address":"12th Floor","pincode":2008},
{"id":949,"name":"Purorejo","address":"PO Box 99008","pincode":2009},
{"id":950,"name":"Calais","address":"Room 1277","pincode":2002},
{"id":951,"name":"Norsborg","address":"7th Floor","pincode":2005},
{"id":952,"name":"Xiaotang","address":"17th Floor","pincode":1996},
{"id":953,"name":"Bogor","address":"Suite 96","pincode":1995},
{"id":954,"name":"Osvaldo Cruz","address":"10th Floor","pincode":2002},
{"id":955,"name":"Chivilcoy","address":"16th Floor","pincode":1994},
{"id":956,"name":"Souq Larb’a al Gharb","address":"Suite 27","pincode":2006},
{"id":957,"name":"Kunri","address":"Apt 1651","pincode":2001},
{"id":958,"name":"Nagahama","address":"Apt 1822","pincode":1995},
{"id":959,"name":"Vale de São Cosme","address":"Apt 670","pincode":1972},
{"id":960,"name":"Las Vegas","address":"Apt 620","pincode":1990},
{"id":961,"name":"Votkinsk","address":"Apt 1284","pincode":1967},
{"id":962,"name":"Santol","address":"Suite 10","pincode":2013},
{"id":963,"name":"Adar","address":"Apt 1406","pincode":1967},
{"id":964,"name":"Laiyuan","address":"PO Box 26413","pincode":2007},
{"id":965,"name":"Hutag","address":"4th Floor","pincode":2003},
{"id":966,"name":"Konstantinovskoye","address":"Suite 89","pincode":2005},
{"id":967,"name":"Rominimbang","address":"19th Floor","pincode":1989},
{"id":968,"name":"Benhao","address":"Room 1912","pincode":2003},
{"id":969,"name":"Higetegera","address":"Apt 1935","pincode":1997},
{"id":970,"name":"Aleksandrovskiy Zavod","address":"Apt 1434","pincode":2006},
{"id":971,"name":"Sérifos","address":"6th Floor","pincode":1998},
{"id":972,"name":"Lazaro Cardenas","address":"Suite 14","pincode":2006},
{"id":973,"name":"Qiping","address":"Apt 1878","pincode":2012},
{"id":974,"name":"Ejmiatsin","address":"PO Box 86005","pincode":1985},
{"id":975,"name":"Pereira","address":"Room 1344","pincode":2008},
{"id":976,"name":"Nijmegen","address":"Room 1759","pincode":1995},
{"id":977,"name":"Estrada","address":"Room 1905","pincode":2000},
{"id":978,"name":"Navan","address":"PO Box 96450","pincode":2011},
{"id":979,"name":"Patos de Minas","address":"Room 1492","pincode":2010},
{"id":980,"name":"Ceará Mirim","address":"3rd Floor","pincode":2012},
{"id":981,"name":"Bascaron","address":"Apt 819","pincode":1993},
{"id":982,"name":"Chinandega","address":"PO Box 25514","pincode":2008},
{"id":983,"name":"Huifa","address":"18th Floor","pincode":2009},
{"id":984,"name":"Cibolang","address":"Room 1399","pincode":2012},
{"id":985,"name":"Santa Fe","address":"5th Floor","pincode":1995},
{"id":986,"name":"Pécs","address":"Apt 1958","pincode":2008},
{"id":987,"name":"Wakkanai","address":"PO Box 64377","pincode":1992},
{"id":988,"name":"Calde","address":"PO Box 43822","pincode":2010},
{"id":989,"name":"Gorichevo","address":"16th Floor","pincode":1985},
{"id":990,"name":"Masarayao","address":"5th Floor","pincode":2000},
{"id":991,"name":"Huallanca","address":"Apt 1462","pincode":2011},
{"id":992,"name":"Roanoke","address":"Room 415","pincode":2008},
{"id":993,"name":"Kańczuga","address":"Room 688","pincode":2012},
{"id":994,"name":"Buenos Aires","address":"Suite 34","pincode":1960},
{"id":995,"name":"Ngujuran","address":"Room 1967","pincode":2007},
{"id":996,"name":"Ardirejo","address":"Suite 11","pincode":2004},
{"id":997,"name":"Ulaan-Ereg","address":"4th Floor","pincode":2001},
{"id":998,"name":"Vangaindrano","address":"Suite 32","pincode":1999},
{"id":999,"name":"Dijon","address":"Suite 72","pincode":1997},
{"id":1000,"name":"Chengshan","address":"PO Box 67817","pincode":2005}]